ORBCOMM FM103           
1 40091U 14040F   25266.98671863  .00001216  00000+0  29670-3 0  9998
2 40091  47.0048 271.1650 0001948 340.1614  19.9196 14.58316943578528
ORBCOMM FM114           
1 41179U 15081A   25266.18337936  .00001345  00000+0  32413-3 0  9996
2 41179  47.0023 183.9535 0001571  61.1922 298.9122 14.58352947518778
ORBCOMM FM119           
1 41180U 15081B   25266.92955396  .00001341  00000+0  32356-3 0  9998
2 41180  46.9996  89.7676 0000976 168.0548 192.0361 14.58289606520138
ORBCOMM FM105           
1 41181U 15081C   25266.25139861  .00000530  00000+0  19421-3 0  9993
2 41181  47.0007 107.4668 0001520  26.7737 333.3221 14.45295159514931
ORBCOMM FM110           
1 41182U 15081D   25265.49039288  .00001409  00000+0  33780-3 0  9991
2 41182  47.0012 186.7626 0003012 291.5045  68.5519 14.58364220518542
ORBCOMM FM118           
1 41183U 15081E   25266.48192439  .00001483  00000+0  35369-3 0  9997
2 41183  47.0035 182.3372 0003242 256.1218 103.9307 14.58345895518795
ORBCOMM FM112           
1 41184U 15081F   25266.21390627  .00002927  00000+0  66132-3 0  9994
2 41184  46.9987  92.2098 0001016  81.8985 278.2016 14.58418589519970
ORBCOMM FM113           
1 41185U 15081G   25266.94447698  .00001617  00000+0  38173-3 0  9995
2 41185  47.0001  89.1010 0000840 110.7720 249.3255 14.58401786520069
